ONEWEB-0571             
1 55150U 23004L   24038.83219862  .00000001  00000+0 -29108-4 0  9996
2 55150  87.9246 146.7360 0001299  65.0211 295.1055 13.18688054 56313
ONEWEB-0573             
1 55152U 23004N   24038.82587528  .00000021  00000+0  20457-4 0  9993
2 55152  87.9243 146.7645 0000948  71.3705 288.7530 13.18684249 56303
ONEWEB-0588             
1 55153U 23004P   24038.81956085  .00000035  00000+0  56859-4 0  9991
2 55153  87.9247 146.7259 0001049 119.2330 240.8907 13.18687521 56301
ONEWEB-0598             
1 55154U 23004Q   24038.91319262 -.00000491  00000+0 -14219-2 0  9993
2 55154  87.8992 192.0951 0001405  68.7016 291.4262 13.11416354 53148
ONEWEB-0599             
1 55155U 23004R   24038.89581532 -.00000002  00000+0 -39329-4 0  9991
2 55155  87.9248 176.9344 0001632  96.6551 263.4766 13.17649619 54199
ONEWEB-0614             
1 55156U 23004S   24038.90832971 -.00000520  00000+0 -15039-2 0  9995
2 55156  87.8993 192.0978 0001375 118.1602 241.9665 13.11415469 53083
